{
  "type": "FeatureCollection",
  "features": [
    {
      "type": "Feature",
      "properties": {
        "norad_id": 61183,
        "name": "GSAT0226 (GALILEO 31)",
        "group": "gnss",
        "lat": 18.237658128515065,
        "lon": 32.98489746928797,
        "alt_km": 23217.927523631322,
        "timestamp": "2025-12-21T14:40:48.160677+00:00",
        "meta_object_name": "GSAT0226 (GALILEO 31)",
        "meta_object_id": "2024-167B",
        "meta_epoch": "2025-12-21T00:56:32.993664",
        "meta_mean_motion": 1.70473742,
        "meta_eccentricity": 0.00011348,
        "meta_inclination": 55.237,
        "meta_ra_of_asc_node": 226.2086,
        "meta_arg_of_pericenter": 107.254,
        "meta_mean_anomaly": 59.1101,
        "meta_ephemeris_type": 0,
        "meta_classification_type": "U",
        "meta_norad_cat_id": 61183,
        "meta_element_set_no": 999,
        "meta_rev_at_epoch": 781,
        "meta_bstar": 0,
        "meta_mean_motion_dot": 7.3e-07,
        "meta_mean_motion_ddot": 0,
        "tle_line1": "1 61183U 24167B   25355.03927076  .00000073  00000+0  00000+0 0  9991",
        "tle_line2": "2 61183  55.2370 226.2086 0001134 107.2540  59.1101  1.70473742  7815"
      },
      "geometry": {
        "type": "Point",
        "coordinates": [
          32.98489746928797,
          18.237658128515065
        ]
      }
    },
    {
      "type": "Feature",
      "properties": {
        "norad_id": 61186,
        "name": "BEIDOU-3 M25 (C47)",
        "group": "gnss",
        "lat": -52.62783419398124,
        "lon": -119.87688791733851,
        "alt_km": 21519.230982832032,
        "timestamp": "2025-12-21T14:40:48.160688+00:00",
        "meta_object_name": "BEIDOU-3 M25 (C47)",
        "meta_object_id": "2024-168B",
        "meta_epoch": "2025-12-20T22:07:53.377248",
        "meta_mean_motion": 1.86230245,
        "meta_eccentricity": 0.0005454,
        "meta_inclination": 54.6348,
        "meta_ra_of_asc_node": 308.4372,
        "meta_arg_of_pericenter": 299.6064,
        "meta_mean_anomaly": 241.0883,
        "meta_ephemeris_type": 0,
        "meta_classification_type": "U",
        "meta_norad_cat_id": 61186,
        "meta_element_set_no": 999,
        "meta_rev_at_epoch": 846,
        "meta_bstar": 0,
        "meta_mean_motion_dot": -6.6e-07,
        "meta_mean_motion_ddot": 0,
        "tle_line1": "1 61186U 24168B   25354.92214557 -.00000066  00000+0  00000+0 0  9998",
        "tle_line2": "2 61186  54.6348 308.4372 0005454 299.6064 241.0883  1.86230245  8460"
      },
      "geometry": {
        "type": "Point",
        "coordinates": [
          -119.87688791733851,
          -52.62783419398124
        ]
      }
    },
    {
      "type": "Feature",
      "properties": {
        "norad_id": 61187,
        "name": "BEIDOU-3 M27 (C49)",
        "group": "gnss",
        "lat": 43.74246352345799,
        "lon": -8.850023579365162,
        "alt_km": 21521.3597104254,
        "timestamp": "2025-12-21T14:40:48.160700+00:00",
        "meta_object_name": "BEIDOU-3 M27 (C49)",
        "meta_object_id": "2024-168C",
        "meta_epoch": "2025-12-21T06:06:47.585952",
        "meta_mean_motion": 1.86230383,
        "meta_eccentricity": 0.00025343,
        "meta_inclination": 54.63,
        "meta_ra_of_asc_node": 308.4093,
        "meta_arg_of_pericenter": 340.0926,
        "meta_mean_anomaly": 198.5211,
        "meta_ephemeris_type": 0,
        "meta_classification_type": "U",
        "meta_norad_cat_id": 61187,
        "meta_element_set_no": 999,
        "meta_rev_at_epoch": 594,
        "meta_bstar": 0,
        "meta_mean_motion_dot": -6.4e-07,
        "meta_mean_motion_ddot": 0,
        "tle_line1": "1 61187U 24168C   25355.25471743 -.00000064  00000+0  00000+0 0  9996",
        "tle_line2": "2 61187  54.6300 308.4093 0002534 340.0926 198.5211  1.86230383  5947"
      },
      "geometry": {
        "type": "Point",
        "coordinates": [
          -8.850023579365162,
          43.74246352345799
        ]
      }
    },
    {
      "type": "Feature",
      "properties": {
        "norad_id": 62339,
        "name": "GPS BIII-7  (PRN 01)",
        "group": "gnss",
        "lat": -5.485059459146207,
        "lon": 165.23755473540743,
        "alt_km": 20213.767545035433,
        "timestamp": "2025-12-21T14:40:48.160710+00:00",
        "meta_object_name": "GPS BIII-7  (PRN 01)",
        "meta_object_id": "2024-242A",
        "meta_epoch": "2025-12-18T08:46:28.895808",
        "meta_mean_motion": 2.00568182,
        "meta_eccentricity": 0.0012509,
        "meta_inclination": 54.922,
        "meta_ra_of_asc_node": 341.5124,
        "meta_arg_of_pericenter": 345.6877,
        "meta_mean_anomaly": 17.1618,
        "meta_ephemeris_type": 0,
        "meta_classification_type": "U",
        "meta_norad_cat_id": 62339,
        "meta_element_set_no": 999,
        "meta_rev_at_epoch": 763,
        "meta_bstar": 0,
        "meta_mean_motion_dot": -8.5e-07,
        "meta_mean_motion_ddot": 0,
        "tle_line1": "1 62339U 24242A   25352.36561222 -.00000085  00000+0  00000+0 0  9993",
        "tle_line2": "2 62339  54.9220 341.5124 0012509 345.6877  17.1618  2.00568182  7636"
      },
      "geometry": {
        "type": "Point",
        "coordinates": [
          165.23755473540743,
          -5.485059459146207
        ]
      }
    },
    {
      "type": "Feature",
      "properties": {
        "norad_id": 62850,
        "name": "NVS-02 (IRNSS-1K)",
        "group": "gnss",
        "lat": -16.189277626449044,
        "lon": -166.30580522797325,
        "alt_km": 31449.229246419764,
        "timestamp": "2025-12-21T14:40:48.160724+00:00",
        "meta_object_name": "NVS-02 (IRNSS-1K)",
        "meta_object_id": "2025-020A",
        "meta_epoch": "2025-12-20T08:38:20.194080",
        "meta_mean_motion": 2.17600288,
        "meta_eccentricity": 0.7347343,
        "meta_inclination": 20.9647,
        "meta_ra_of_asc_node": 324.9017,
        "meta_arg_of_pericenter": 31.1731,
        "meta_mean_anomaly": 356.6243,
        "meta_ephemeris_type": 0,
        "meta_classification_type": "U",
        "meta_norad_cat_id": 62850,
        "meta_element_set_no": 999,
        "meta_rev_at_epoch": 708,
        "meta_bstar": 0.00012417,
        "meta_mean_motion_dot": 1.29e-06,
        "meta_mean_motion_ddot": 0,
        "tle_line1": "1 62850U 25020A   25354.35995595  .00000129  00000+0  12417-3 0  9998",
        "tle_line2": "2 62850  20.9647 324.9017 7347343  31.1731 356.6243  2.17600288  7082"
      },
      "geometry": {
        "type": "Point",
        "coordinates": [
          -166.30580522797325,
          -16.189277626449044
        ]
      }
    },
    {
      "type": "Feature",
      "properties": {
        "norad_id": 62876,
        "name": "QZS-6 (QZSS/PRN 200)",
        "group": "gnss",
        "lat": -0.010029518446050234,
        "lon": 41.180845801087834,
        "alt_km": 35789.38063579515,
        "timestamp": "2025-12-21T14:40:48.160737+00:00",
        "meta_object_name": "QZS-6 (QZSS/PRN 200)",
        "meta_object_id": "2025-023A",
        "meta_epoch": "2025-12-21T02:25:38.762976",
        "meta_mean_motion": 1.0027218,
        "meta_eccentricity": 0.00014989,
        "meta_inclination": 0.0505,
        "meta_ra_of_asc_node": 69.8348,
        "meta_arg_of_pericenter": 209.4241,
        "meta_mean_anomaly": 297.6225,
        "meta_ephemeris_type": 0,
        "meta_classification_type": "U",
        "meta_norad_cat_id": 62876,
        "meta_element_set_no": 999,
        "meta_rev_at_epoch": 317,
        "meta_bstar": 0,
        "meta_mean_motion_dot": -2.11e-06,
        "meta_mean_motion_ddot": 0,
        "tle_line1": "1 62876U 25023A   25355.10114309 -.00000211  00000+0  00000+0 0  9993",
        "tle_line2": "2 62876   0.0505  69.8348 0001498 209.4241 297.6225  1.00272180  3178"
      },
      "geometry": {
        "type": "Point",
        "coordinates": [
          41.180845801087834,
          -0.010029518446050234
        ]
      }
    },
    {
      "type": "Feature",
      "properties": {
        "norad_id": 63130,
        "name": "COSMOS 2584 (704K)",
        "group": "gnss",
        "lat": -55.5702468252054,
        "lon": -58.28979979700846,
        "alt_km": 19118.40114282062,
        "timestamp": "2025-12-21T14:40:48.160748+00:00",
        "meta_object_name": "COSMOS 2584 (704K)",
        "meta_object_id": "2025-042A",
        "meta_epoch": "2025-12-18T11:25:35.911776",
        "meta_mean_motion": 2.13103072,
        "meta_eccentricity": 0.00077091,
        "meta_inclination": 64.979,
        "meta_ra_of_asc_node": 78.9506,
        "meta_arg_of_pericenter": 218.5301,
        "meta_mean_anomaly": 141.4378,
        "meta_ephemeris_type": 0,
        "meta_classification_type": "U",
        "meta_norad_cat_id": 63130,
        "meta_element_set_no": 999,
        "meta_rev_at_epoch": 619,
        "meta_bstar": 0,
        "meta_mean_motion_dot": -3.8e-07,
        "meta_mean_motion_ddot": 0,
        "tle_line1": "1 63130U 25042A   25352.47611009 -.00000038  00000+0  00000+0 0  9991",
        "tle_line2": "2 63130  64.9790  78.9506 0007709 218.5301 141.4378  2.13103072  6191"
      },
      "geometry": {
        "type": "Point",
        "coordinates": [
          -58.28979979700846,
          -55.5702468252054
        ]
      }
    }
  ]
}